{
  "type": "FeatureCollection",
  "features": [
    {
      "type": "Feature",
      "properties": {
        "norad_id": 35123,
        "name": "FENGYUN 1C DEB",
        "group": "fengyun-1c-debris",
        "lat": -32.45466781146773,
        "lon": -179.35388550616395,
        "alt_km": 819.680683260257,
        "timestamp": "2025-12-17T21:39:45.973109+00:00",
        "meta_object_name": "FENGYUN 1C DEB",
        "meta_object_id": "1999-025DLB",
        "meta_epoch": "2025-12-15T05:44:46.773600",
        "meta_mean_motion": 14.2422342,
        "meta_eccentricity": 0.00496704,
        "meta_inclination": 99.1227,
        "meta_ra_of_asc_node": 172.0178,
        "meta_arg_of_pericenter": 69.1967,
        "meta_mean_anomaly": 291.4521,
        "meta_ephemeris_type": 0,
        "meta_classification_type": "U",
        "meta_norad_cat_id": 35123,
        "meta_element_set_no": 999,
        "meta_rev_at_epoch": 61109,
        "meta_bstar": 0.00057394195,
        "meta_mean_motion_dot": 1.293e-05,
        "meta_mean_motion_ddot": 0,
        "tle_line1": "1 35123U 99025DLB 25349.23943025  .00001293  00000+0  57394-3 0  9995",
        "tle_line2": "2 35123  99.1227 172.0178 0049670  69.1967 291.4521 14.24223420611091"
      },
      "geometry": {
        "type": "Point",
        "coordinates": [
          -179.35388550616395,
          -32.45466781146773
        ]
      }
    },
    {
      "type": "Feature",
      "properties": {
        "norad_id": 35125,
        "name": "FENGYUN 1C DEB",
        "group": "fengyun-1c-debris",
        "lat": -35.81969522848155,
        "lon": 176.6981076182721,
        "alt_km": 770.3884088574277,
        "timestamp": "2025-12-17T21:39:45.973118+00:00",
        "meta_object_name": "FENGYUN 1C DEB",
        "meta_object_id": "1999-025DLD",
        "meta_epoch": "2025-12-08T07:05:36.118752",
        "meta_mean_motion": 14.33084151,
        "meta_eccentricity": 0.00521413,
        "meta_inclination": 98.2165,
        "meta_ra_of_asc_node": 353.5679,
        "meta_arg_of_pericenter": 308.0323,
        "meta_mean_anomaly": 51.6162,
        "meta_ephemeris_type": 0,
        "meta_classification_type": "U",
        "meta_norad_cat_id": 35125,
        "meta_element_set_no": 999,
        "meta_rev_at_epoch": 31218,
        "meta_bstar": 0.0020544677,
        "meta_mean_motion_dot": 5.68e-05,
        "meta_mean_motion_ddot": 0,
        "tle_line1": "1 35125U 99025DLD 25342.29555693  .00005680  00000+0  20545-2 0  9997",
        "tle_line2": "2 35125  98.2165 353.5679 0052141 308.0323  51.6162 14.33084151312185"
      },
      "geometry": {
        "type": "Point",
        "coordinates": [
          176.6981076182721,
          -35.81969522848155
        ]
      }
    },
    {
      "type": "Feature",
      "properties": {
        "norad_id": 35130,
        "name": "FENGYUN 1C DEB",
        "group": "fengyun-1c-debris",
        "lat": -20.150338804101615,
        "lon": -159.35351853780992,
        "alt_km": 566.6469289721372,
        "timestamp": "2025-12-17T21:39:45.973127+00:00",
        "meta_object_name": "FENGYUN 1C DEB",
        "meta_object_id": "1999-025DLJ",
        "meta_epoch": "2025-12-17T08:57:18.844128",
        "meta_mean_motion": 15.0107425,
        "meta_eccentricity": 0.00110525,
        "meta_inclination": 99.0324,
        "meta_ra_of_asc_node": 196.6853,
        "meta_arg_of_pericenter": 57.1023,
        "meta_mean_anomaly": 303.1259,
        "meta_ephemeris_type": 0,
        "meta_classification_type": "U",
        "meta_norad_cat_id": 35130,
        "meta_element_set_no": 999,
        "meta_rev_at_epoch": 64983,
        "meta_bstar": 0.0057432767,
        "meta_mean_motion_dot": 0.00074219,
        "meta_mean_motion_ddot": 0,
        "tle_line1": "1 35130U 99025DLJ 25351.37313477  .00074219  00000+0  57433-2 0  9994",
        "tle_line2": "2 35130  99.0324 196.6853 0011052  57.1023 303.1259 15.01074250649834"
      },
      "geometry": {
        "type": "Point",
        "coordinates": [
          -159.35351853780992,
          -20.150338804101615
        ]
      }
    },
    {
      "type": "Feature",
      "properties": {
        "norad_id": 35135,
        "name": "FENGYUN 1C DEB",
        "group": "fengyun-1c-debris",
        "lat": 77.15608613716945,
        "lon": -138.06159776919702,
        "alt_km": 866.6309984232366,
        "timestamp": "2025-12-17T21:39:45.973136+00:00",
        "meta_object_name": "FENGYUN 1C DEB",
        "meta_object_id": "1999-025DLP",
        "meta_epoch": "2025-12-16T18:10:55.660224",
        "meta_mean_motion": 14.22547917,
        "meta_eccentricity": 0.00807653,
        "meta_inclination": 98.5647,
        "meta_ra_of_asc_node": 359.4515,
        "meta_arg_of_pericenter": 272.6039,
        "meta_mean_anomaly": 86.5896,
        "meta_ephemeris_type": 0,
        "meta_classification_type": "U",
        "meta_norad_cat_id": 35135,
        "meta_element_set_no": 999,
        "meta_rev_at_epoch": 87881,
        "meta_bstar": 0.00044907129,
        "meta_mean_motion_dot": 9.93e-06,
        "meta_mean_motion_ddot": 0,
        "tle_line1": "1 35135U 99025DLP 25350.75758866  .00000993  00000+0  44907-3 0  9996",
        "tle_line2": "2 35135  98.5647 359.4515 0080765 272.6039  86.5896 14.22547917878811"
      },
      "geometry": {
        "type": "Point",
        "coordinates": [
          -138.06159776919702,
          77.15608613716945
        ]
      }
    },
    {
      "type": "Feature",
      "properties": {
        "norad_id": 35139,
        "name": "FENGYUN 1C DEB",
        "group": "fengyun-1c-debris",
        "lat": 14.329965517197879,
        "lon": 179.19000378055682,
        "alt_km": 844.3968346672491,
        "timestamp": "2025-12-17T21:39:45.973145+00:00",
        "meta_object_name": "FENGYUN 1C DEB",
        "meta_object_id": "1999-025DLT",
        "meta_epoch": "2025-12-17T05:40:19.572096",
        "meta_mean_motion": 14.2110105,
        "meta_eccentricity": 0.0067913,
        "meta_inclination": 98.584,
        "meta_ra_of_asc_node": 356.3312,
        "meta_arg_of_pericenter": 284.2558,
        "meta_mean_anomaly": 75.1083,
        "meta_ephemeris_type": 0,
        "meta_classification_type": "U",
        "meta_norad_cat_id": 35139,
        "meta_element_set_no": 999,
        "meta_rev_at_epoch": 64217,
        "meta_bstar": 0.0003366611,
        "meta_mean_motion_dot": 7.05e-06,
        "meta_mean_motion_ddot": 0,
        "tle_line1": "1 35139U 99025DLT 25351.23633764  .00000705  00000+0  33666-3 0  9994",
        "tle_line2": "2 35139  98.5840 356.3312 0067913 284.2558  75.1083 14.21101050642179"
      },
      "geometry": {
        "type": "Point",
        "coordinates": [
          179.19000378055682,
          14.329965517197879
        ]
      }
    },
    {
      "type": "Feature",
      "properties": {
        "norad_id": 35140,
        "name": "FENGYUN 1C DEB",
        "group": "fengyun-1c-debris",
        "lat": -73.30288910720402,
        "lon": 123.37752748071341,
        "alt_km": 707.1949028907829,
        "timestamp": "2025-12-17T21:39:45.973154+00:00",
        "meta_object_name": "FENGYUN 1C DEB",
        "meta_object_id": "1999-025DLU",
        "meta_epoch": "2025-12-14T04:35:17.926080",
        "meta_mean_motion": 14.21349423,
        "meta_eccentricity": 0.02906296,
        "meta_inclination": 98.4433,
        "meta_ra_of_asc_node": 329.5041,
        "meta_arg_of_pericenter": 322.4095,
        "meta_mean_anomaly": 35.7077,
        "meta_ephemeris_type": 0,
        "meta_classification_type": "U",
        "meta_norad_cat_id": 35140,
        "meta_element_set_no": 999,
        "meta_rev_at_epoch": 87299,
        "meta_bstar": 0.00031148467,
        "meta_mean_motion_dot": 9.92e-06,
        "meta_mean_motion_ddot": 0,
        "tle_line1": "1 35140U 99025DLU 25348.19117970  .00000992  00000+0  31148-3 0  9994",
        "tle_line2": "2 35140  98.4433 329.5041 0290629 322.4095  35.7077 14.21349423872990"
      },
      "geometry": {
        "type": "Point",
        "coordinates": [
          123.37752748071341,
          -73.30288910720402
        ]
      }
    },
    {
      "type": "Feature",
      "properties": {
        "norad_id": 35142,
        "name": "FENGYUN 1C DEB",
        "group": "fengyun-1c-debris",
        "lat": -19.642973956010444,
        "lon": -12.820880381061952,
        "alt_km": 992.0454733738306,
        "timestamp": "2025-12-17T21:39:45.973163+00:00",
        "meta_object_name": "FENGYUN 1C DEB",
        "meta_object_id": "1999-025DLW",
        "meta_epoch": "2025-12-16T06:06:10.234368",
        "meta_mean_motion": 13.90508934,
        "meta_eccentricity": 0.01077729,
        "meta_inclination": 99.0452,
        "meta_ra_of_asc_node": 342.3158,
        "meta_arg_of_pericenter": 204.4667,
        "meta_mean_anomaly": 168.1585,
        "meta_ephemeris_type": 0,
        "meta_classification_type": "U",
        "meta_norad_cat_id": 35142,
        "meta_element_set_no": 999,
        "meta_rev_at_epoch": 85738,
        "meta_bstar": 0.00020062048,
        "meta_mean_motion_dot": 2.18e-06,
        "meta_mean_motion_ddot": 0,
        "tle_line1": "1 35142U 99025DLW 25350.25428512  .00000218  00000+0  20062-3 0  9997",
        "tle_line2": "2 35142  99.0452 342.3158 0107772 204.4667 168.1585 13.90508934857382"
      },
      "geometry": {
        "type": "Point",
        "coordinates": [
          -12.820880381061952,
          -19.642973956010444
        ]
      }
    }
  ]
}